     2.11           GLONASS NAV DATA                        RINEX VERSION / TYPE
cnvtToRINEX 2.19.0  convertToRINEX OPR  21-Apr-15 13:32 UTC PGM / RUN BY / DATE 
----------------------------------------------------------- COMMENT             
  2015     4    20    0.279396772385D-08                    CORR TO SYSTEM TIME 
    16                                                      LEAP SECONDS        
                                                            END OF HEADER       
17 15 04 20 19 15  0.0 0.131381675601D-04 0.181898940355D-11 0.684300000000D+05
    0.186803544922D+05-0.155173015594D+01-0.186264514923D-08 0.000000000000D+00
   -0.884713525391D+04 0.133708763123D+01-0.279396772385D-08-0.600000000000D+01
    0.148957353516D+05 0.274871253967D+01-0.931322574615D-09 0.000000000000D+00
 6 15 04 20 19 15  0.0 0.662757083774D-04 0.000000000000D+00 0.684300000000D+05
   -0.127906611328D+05-0.755879402161D+00 0.186264514923D-08 0.000000000000D+00
   -0.142426250000D+05-0.218213653564D+01-0.465661287308D-08-0.400000000000D+01
    0.168284238281D+05-0.242244911194D+01 0.000000000000D+00 0.000000000000D+00
14 15 04 20 19 15  0.0 0.157894566655D-03 0.363797880709D-11 0.684300000000D+05
    0.222461489258D+05 0.170310783386D+01-0.279396772385D-08 0.000000000000D+00
   -0.165573730469D+03 0.224485397339D+00-0.931322574615D-09-0.700000000000D+01
    0.123928583984D+05-0.305394077301D+01-0.931322574615D-09 0.000000000000D+00
15 15 04 20 19 15  0.0 0.435234978795D-04 0.909494701773D-12 0.684300000000D+05
    0.951078076172D+04 0.298196887970D+01-0.931322574615D-09 0.000000000000D+00
   -0.796257177734D+04 0.673469543457D+00-0.372529029846D-08 0.000000000000D+00
    0.223089560547D+05-0.102117729187D+01-0.186264514923D-08 0.000000000000D+00
16 15 04 20 19 15  0.0-0.207871198654D-05 0.909494701773D-12 0.684300000000D+05
   -0.113896352539D+05 0.255112266541D+01 0.931322574615D-09 0.000000000000D+00
   -0.121187709961D+05 0.741504669189D+00-0.465661287308D-08-0.100000000000D+01
    0.193325229492D+05 0.195639896393D+01-0.931322574615D-09 0.000000000000D+00
24 15 04 20 19 15  0.0-0.123557634652D-03 0.000000000000D+00 0.684300000000D+05
    0.114709604492D+05-0.218162822723D+01-0.931322574615D-09 0.000000000000D+00
    0.323074023438D+04 0.219121360779D+01-0.931322574615D-09 0.200000000000D+01
    0.225345034180D+05 0.796977996826D+00-0.279396772385D-08 0.000000000000D+00
18 15 04 20 19 15  0.0 0.467393547297D-04 0.909494701773D-12 0.684300000000D+05
    0.154569121094D+05 0.386766433716D+00-0.186264514923D-08 0.000000000000D+00
   -0.195223266602D+05-0.648937225342D+00-0.372529029846D-08-0.300000000000D+01
   -0.533614013672D+04 0.348898220062D+01 0.186264514923D-08 0.000000000000D+00
 5 15 04 20 19 15  0.0 0.546220690012D-05 0.000000000000D+00 0.684300000000D+05
   -0.740398193359D+04-0.138452529907D+00 0.931322574615D-09 0.000000000000D+00
   -0.244125405273D+05 0.293703079224D-01-0.558793544769D-08 0.100000000000D+01
    0.784638671875D+02-0.355926132202D+01 0.279396772385D-08 0.000000000000D+00
 7 15 04 20 19 15  0.0-0.119304284453D-03 0.000000000000D+00 0.693900000000D+05
   -0.104053159180D+05-0.883022308350D+00 0.931322574615D-09 0.000000000000D+00
    0.352149658203D+04-0.302095699310D+01-0.931322574615D-09 0.500000000000D+01
    0.230537358398D+05 0.608768463135D-01-0.279396772385D-08 0.000000000000D+00
15 15 04 20 19 45  0.0 0.435262918472D-04 0.909494701773D-12 0.702000000000D+05
    0.146571147461D+05 0.268561077118D+01-0.186264514923D-08 0.000000000000D+00
   -0.720708154297D+04 0.174654006958D+00-0.279396772385D-08 0.000000000000D+00
    0.196344541016D+05-0.193100833893D+01-0.931322574615D-09 0.000000000000D+00
16 15 04 20 19 45  0.0-0.207591801882D-05 0.909494701773D-12 0.702000000000D+05
   -0.634991357422D+04 0.300511550903D+01 0.000000000000D+00 0.000000000000D+00
   -0.110721611328D+05 0.395715713501D+00-0.465661287308D-08-0.100000000000D+01
    0.220601884766D+05 0.105437755585D+01-0.931322574615D-09 0.000000000000D+00
17 15 04 20 19 45  0.0 0.131418928504D-04 0.181898940355D-11 0.702000000000D+05
    0.157193740234D+05-0.169139957428D+01-0.186264514923D-08 0.000000000000D+00
   -0.581574755859D+04 0.202007675171D+01-0.186264514923D-08-0.600000000000D+01
    0.192016240234D+05 0.200460910797D+01-0.186264514923D-08 0.000000000000D+00
 6 15 04 20 19 45  0.0 0.662766396999D-04 0.000000000000D+00 0.702000000000D+05
   -0.142075771484D+05-0.777701377869D+00 0.931322574615D-09 0.000000000000D+00
   -0.175161259766D+05-0.143565177917D+01-0.558793544769D-08-0.400000000000D+01
    0.118723769531D+05-0.304844379425D+01 0.000000000000D+00 0.000000000000D+00
18 15 04 20 19 45  0.0 0.467412173748D-04 0.909494701773D-12 0.702000000000D+05
    0.155727021484D+05-0.229844093323D+00-0.279396772385D-08 0.000000000000D+00
   -0.201257041016D+05 0.893688201904D-02-0.372529029846D-08-0.300000000000D+01
    0.106981347656D+04 0.358228874207D+01 0.186264514923D-08 0.000000000000D+00
 5 15 04 20 19 45  0.0 0.546313822269D-05 0.000000000000D+00 0.702000000000D+05
   -0.735516601563D+04 0.227730751038D+00 0.000000000000D+00 0.000000000000D+00
   -0.236167602539D+05 0.834242820740D+00-0.465661287308D-08 0.100000000000D+01
   -0.624848144531D+04-0.342504596710D+01 0.279396772385D-08 0.000000000000D+00
24 15 04 20 19 45  0.0-0.123558565974D-03 0.000000000000D+00 0.702000000000D+05
    0.778478027344D+04-0.187763786316D+01 0.000000000000D+00 0.000000000000D+00
    0.753088623047D+04 0.254917049408D+01 0.000000000000D+00 0.200000000000D+01
    0.230778916016D+05-0.197105407715D+00-0.279396772385D-08 0.000000000000D+00
 7 15 04 20 19 45  0.0-0.119305215776D-03 0.000000000000D+00 0.702000000000D+05
   -0.123621435547D+05-0.126897144318D+01 0.931322574615D-09 0.000000000000D+00
   -0.172694287109D+04-0.276433277130D+01-0.279396772385D-08 0.500000000000D+01
    0.222737470703D+05-0.922010421753D+00-0.186264514923D-08 0.000000000000D+00
14 15 04 20 19 45  0.0 0.157902948558D-03 0.363797880709D-11 0.702000000000D+05
    0.246276655273D+05 0.914446830750D+00-0.279396772385D-08 0.000000000000D+00
   -0.102422851563D+03-0.120058059692D+00 0.000000000000D+00-0.700000000000D+01
    0.648563330078D+04-0.346679687500D+01-0.931322574615D-09 0.000000000000D+00
 9 15 04 20 19 45  0.0 0.492669641972D-06 0.000000000000D+00 0.717300000000D+05
   -0.213572060547D+05 0.154770469666D+01 0.186264514923D-08 0.000000000000D+00
   -0.778389794922D+04 0.333229064941D+00-0.372529029846D-08-0.200000000000D+01
    0.114358603516D+05 0.311928462982D+01 0.000000000000D+00 0.000000000000D+00
16 15 04 20 20 15  0.0-0.207405537367D-05 0.909494701773D-12 0.720000000000D+05
   -0.744573730469D+03 0.317164993286D+01-0.931322574615D-09 0.000000000000D+00
   -0.107577021484D+05-0.552797317505D-01-0.372529029846D-08-0.100000000000D+01
    0.230782094727D+05 0.691375732422D-01-0.931322574615D-09 0.000000000000D+00
18 15 04 20 20 15  0.0 0.467430800200D-04 0.909494701773D-12 0.720000000000D+05
    0.147537905273D+05-0.640557289124D+00-0.279396772385D-08 0.000000000000D+00
   -0.194089033203D+05 0.801366806030D+00-0.372529029846D-08-0.300000000000D+01
    0.739272167969D+04 0.339737129211D+01 0.000000000000D+00 0.000000000000D+00
15 15 04 20 20 15  0.0 0.435290858150D-04 0.909494701773D-12 0.720000000000D+05
    0.190106718750D+05 0.211017608643D+01-0.279396772385D-08 0.000000000000D+00
   -0.727093994141D+04-0.220061302185D+00-0.931322574615D-09 0.000000000000D+00
    0.154475297852D+05-0.269089126587D+01-0.931322574615D-09 0.000000000000D+00
17 15 04 20 20 15  0.0 0.131465494633D-04 0.181898940355D-11 0.720000000000D+05
    0.127530405273D+05-0.156302928925D+01-0.931322574615D-09 0.000000000000D+00
   -0.164817529297D+04 0.258141040802D+01-0.931322574615D-09-0.600000000000D+01
    0.220195668945D+05 0.110629272461D+01-0.279396772385D-08 0.000000000000D+00
 6 15 04 20 20 15  0.0 0.662766396999D-04 0.000000000000D+00 0.720000000000D+05
   -0.154380800781D+05-0.547200202942D+00 0.000000000000D+00 0.000000000000D+00
   -0.193749697266D+05-0.629371643066D+00-0.558793544769D-08-0.400000000000D+01
    0.599614208984D+04-0.343820095062D+01 0.931322574615D-09 0.000000000000D+00
 7 15 04 20 20 15  0.0-0.119306147099D-03 0.000000000000D+00 0.720000000000D+05
   -0.148667421875D+05-0.147776985168D+01 0.000000000000D+00 0.000000000000D+00
   -0.628206884766D+04-0.226221847534D+01-0.372529029846D-08 0.500000000000D+01
    0.197768706055D+05-0.183445549011D+01-0.931322574615D-09 0.000000000000D+00
 9 15 04 20 20 15  0.0 0.492669641972D-06 0.000000000000D+00 0.720000000000D+05
   -0.178872343750D+05 0.227708244324D+01 0.931322574615D-09 0.000000000000D+00
   -0.737805419922D+04 0.833587646484D-01-0.372529029846D-08-0.200000000000D+01
    0.165322124023D+05 0.250635528564D+01-0.931322574615D-09 0.000000000000D+00
